NORAD_CAT_ID,OBJECT_NAME,OBJECT_TYPE,EPOCH,MEAN_MOTION,ECCENTRICITY,INCLINATION,RA_OF_ASC_NODE,ARG_OF_PERICENTER,MEAN_ANOMALY,BSTAR,MEAN_MOTION_DOT,MEAN_MOTION_DDOT,TLE_LINE0,TLE_LINE1,TLE_LINE2,SEMIMAJOR_AXIS,PERIOD,APOGEE,PERIGEE,DECAYED
53559.0,STARLINK-4508,PAYLOAD,2024-03-11 08:17:53,15.08845112,0.0001219,53.2158,93.7793,92.6881,267.4251,-7.7188e-05,-1.516e-05,0.0,0 STARLINK-4508,1 53559U 22101AJ  24071.34575417 -.00001516  00000-0 -77188-4 0  9993,2 53559  53.2158  93.7793 0001219  92.6881 267.4251 15.08845112 86352,6917.865,95.437,540.573,538.886,0.0
53559.0,STARLINK-4508,PAYLOAD,2024-03-12 04:57:54,15.08835193,0.0001642,53.2166,89.9153,95.2729,264.845,-3.2986e-05,-8.13e-06,0.0,0 STARLINK-4508,1 53559U 22101AJ  24072.20688250 -.00000813  00000-0 -32986-4 0  9995,2 53559  53.2166  89.9153 0001642  95.2729 264.8450 15.08835193 86482,6917.895,95.438,540.896,538.624,0.0
53559.0,STARLINK-4508,PAYLOAD,2024-03-12 08:08:41,15.08836394,0.0001564,53.2174,89.3217,93.5042,266.6129,3.8897e-05,3.31e-06,0.0,0 STARLINK-4508,1 53559U 22101AJ  24072.33936456  .00000331  00000-0  38897-4 0  9993,2 53559  53.2174  89.3217 0001564  93.5042 266.6129 15.08836394 86508,6917.891,95.438,540.838,538.674,0.0
53559.0,STARLINK-4508,PAYLOAD,2024-03-13 04:48:39,15.08860064,0.0001453,53.2183,85.4554,109.0939,251.0211,0.00026039,3.861e-05,0.0,0 STARLINK-4508,1 53559U 22101AJ  24073.20045590  .00003861  00000-0  26039-3 0  9995,2 53559  53.2183  85.4554 0001453 109.0939 251.0211 15.08860064 86639,6917.819,95.436,540.689,538.679,0.0
53559.0,STARLINK-4508,PAYLOAD,2024-03-13 11:10:13,15.0883085,0.0001549,53.2178,84.266,103.8963,256.2202,-1.0264e-05,-4.51e-06,0.0,0 STARLINK-4508,1 53559U 22101AJ  24073.46543911 -.00000451  00000-0 -10264-4 0  9991,2 53559  53.2178  84.2660 0001549 103.8963 256.2202 15.08830850 86674,6917.908,95.438,540.845,538.702,0.0
53559.0,STARLINK-4508,PAYLOAD,2024-03-14 06:14:52,15.08827887,0.0001317,53.2166,80.6954,93.0214,267.0929,-2.1519e-05,-6.3e-06,0.0,0 STARLINK-4508,1 53559U 22101AJ  24074.26032631 -.00000630  00000-0 -21519-4 0  9996,2 53559  53.2166  80.6954 0001317  93.0214 267.0929 15.08827887 86794,6917.917,95.438,540.694,538.871,0.0
53559.0,STARLINK-4508,PAYLOAD,2024-03-14 09:25:38,15.08832164,0.0001334,53.2172,80.1009,93.9622,266.1522,1.2429e-05,-9e-07,0.0,0 STARLINK-4508,1 53559U 22101AJ  24074.39280339 -.00000090  00000-0  12429-4 0  9999,2 53559  53.2172  80.1009 0001334  93.9622 266.1522 15.08832164 86814,6917.904,95.438,540.692,538.846,0.0
53559.0,STARLINK-4508,PAYLOAD,2024-03-15 04:30:15,15.08827294,0.0001284,53.2171,76.5322,96.6215,263.4923,0.00015641,2.201e-05,0.0,0 STARLINK-4508,1 53559U 22101AJ  24075.18768248  .00002201  00000-0  15641-3 0  9990,2 53559  53.2171  76.5322 0001284  96.6215 263.4923 15.08827294 86938,6917.919,95.438,540.672,538.896,0.0
53559.0,STARLINK-4508,PAYLOAD,2024-03-15 09:16:25,15.08834392,0.0001354,53.2166,75.6401,96.0903,264.0244,0.00027752,4.131e-05,0.0,0 STARLINK-4508,1 53559U 22101AJ  24075.38640199  .00004131  00000-0  27752-3 0  9996,2 53559  53.2166  75.6401 0001354  96.0903 264.0244 15.08834392 86969,6917.898,95.438,540.699,538.826,0.0
53559.0,STARLINK-4508,PAYLOAD,2024-03-16 09:07:12,15.08842173,0.0001586,53.2181,71.1747,80.1487,279.9684,0.00026372,3.912e-05,0.0,0 STARLINK-4508,1 53559U 22101AJ  24076.38000460  .00003912  00000-0  26372-3 0  9991,2 53559  53.2181  71.1747 0001586  80.1487 279.9684 15.08842173 87115,6917.874,95.437,540.836,538.642,0.0
53559.0,STARLINK-4508,PAYLOAD,2024-03-17 04:11:50,15.08834115,0.0001576,53.2177,67.6042,80.456,279.661,1.228e-05,-9.3e-07,0.0,0 STARLINK-4508,1 53559U 22101AJ  24077.17489084 -.00000093  00000-0  12280-4 0  9994,2 53559  53.2177  67.6042 0001576  80.4560 279.6610 15.08834115 87238,6917.898,95.438,540.854,538.673,0.0
53559.0,STARLINK-4508,PAYLOAD,2024-03-17 05:47:13,15.08834426,0.0001584,53.2178,67.3069,80.0044,280.1126,1.3577e-05,-7.2e-07,0.0,0 STARLINK-4508,1 53559U 22101AJ  24077.24113088 -.00000072  00000-0  13577-4 0  9997,2 53559  53.2178  67.3069 0001584  80.0044 280.1126 15.08834426 87242,6917.897,95.438,540.858,538.667,0.0
53559.0,STARLINK-4508,PAYLOAD,2024-03-18 04:02:37,15.0884719,0.000149,53.2175,63.1533,94.799,265.3172,0.00014955,2.093e-05,0.0,0 STARLINK-4508,1 53559U 22101AJ  24078.16848501  .00002093  00000-0  14955-3 0  9998,2 53559  53.2175  63.1533 0001490  94.7990 265.3172 15.08847190 87380,6917.858,95.437,540.754,538.693,0.0
53559.0,STARLINK-4508,PAYLOAD,2024-03-18 05:37:59,15.08851113,0.000159,53.2176,62.8524,105.2655,254.8513,0.00015225,2.137e-05,0.0,0 STARLINK-4508,1 53559U 22101AJ  24078.23472217  .00002137  00000-0  15225-3 0  9993,2 53559  53.2176  62.8524 0001590 105.2655 254.8513 15.08851113 87397,6917.846,95.437,540.811,538.611,0.0
53559.0,STARLINK-4508,PAYLOAD,2024-03-19 03:53:24,15.08846626,0.000209,53.217,58.6891,129.974,230.1436,0.0001567,2.207e-05,0.0,0 STARLINK-4508,1 53559U 22101AJ  24079.16208466  .00002207  00000-0  15670-3 0  9991,2 53559  53.2170  58.6891 0002090 129.9740 230.1436 15.08846626 87535,6917.86,95.437,541.171,538.279,0.0
53559.0,STARLINK-4508,PAYLOAD,2024-03-19 21:22:39,15.08839895,0.0001675,53.2172,55.4196,78.6837,281.4344,-2.4464e-05,-6.77e-06,0.0,0 STARLINK-4508,1 53559U 22101AJ  24079.89073032 -.00000677  00000-0 -24464-4 0  9993,2 53559  53.2172  55.4196 0001675  78.6837 281.4344 15.08839895 87644,6917.881,95.438,540.904,538.587,0.0
53559.0,STARLINK-4508,PAYLOAD,2024-03-20 05:19:34,15.08837554,0.0001374,53.2177,53.9324,90.1361,269.9789,-3.6759e-05,-8.73e-06,0.0,0 STARLINK-4508,1 53559U 22101AJ  24080.22193152 -.00000873  00000-0 -36759-4 0  9996,2 53559  53.2177  53.9324 0001374  90.1361 269.9789 15.08837554 87691,6917.888,95.438,540.703,538.802,0.0
53559.0,STARLINK-4508,PAYLOAD,2024-03-20 22:48:49,15.08839865,0.0001184,53.2174,50.6612,87.4507,272.6621,0.00015716,2.214e-05,0.0,0 STARLINK-4508,1 53559U 22101AJ  24080.95057335  .00002214  00000-0  15716-3 0  9996,2 53559  53.2174  50.6612 0001184  87.4507 272.6621 15.08839865 87808,6917.881,95.438,540.565,538.927,0.0
53559.0,STARLINK-4508,PAYLOAD,2024-03-21 05:10:21,15.08851644,0.0001132,53.2167,49.4734,78.5988,281.5131,0.00037988,5.765e-05,0.0,0 STARLINK-4508,1 53559U 22101AJ  24081.21552988  .00005765  00000-0  37988-3 0  9999,2 53559  53.2167  49.4734 0001132  78.5988 281.5131 15.08851644 87846,6917.845,95.437,540.493,538.927,0.0
53559.0,STARLINK-4508,PAYLOAD,2024-03-21 14:42:40,15.08853654,0.0001284,53.2157,47.688,55.6576,304.4538,0.00033185,4.999e-05,0.0,0 STARLINK-4508,1 53559U 22101AJ  24081.61296769  .00004999  00000-0  33185-3 0  9998,2 53559  53.2157  47.6880 0001284  55.6576 304.4538 15.08853654 87900,6917.839,95.437,540.592,538.815,0.0
53559.0,STARLINK-4508,PAYLOAD,2024-03-21 21:04:13,15.08836554,0.0001774,53.2177,46.498,82.2817,277.8376,4.4092e-05,4.14e-06,0.0,0 STARLINK-4508,1 53559U 22101AJ  24081.87793483  .00000414  00000-0  44092-4 0  9999,2 53559  53.2177  46.4980 0001774  82.2817 277.8376 15.08836554 87945,6917.891,95.438,540.983,538.529,0.0
53559.0,STARLINK-4508,PAYLOAD,2024-03-22 05:01:08,15.0885593,0.0001322,53.2172,45.0131,85.8582,274.2561,0.00037103,5.624e-05,0.0,0 STARLINK-4508,1 53559U 22101AJ  24082.20912563  .00005624  00000-0  37103-3 0  9991,2 53559  53.2172  45.0131 0001322  85.8582 274.2561 15.08855930 87991,6917.832,95.437,540.611,538.782,0.0
53559.0,STARLINK-4508,PAYLOAD,2024-03-22 06:36:31,15.08860635,0.0001296,53.217,44.7154,94.125,265.989,0.00046303,7.093e-05,0.0,0 STARLINK-4508,1 53559U 22101AJ  24082.27536348  .00007093  00000-0  46303-3 0  9995,2 53559  53.2170  44.7154 0001296  94.1250 265.9890 15.08860635 88008,6917.817,95.436,540.579,538.786,0.0
53559.0,STARLINK-4508,PAYLOAD,2024-03-22 20:55:00,15.08833961,0.0001069,53.2154,42.0377,97.2101,262.9013,-0.0001603,-2.838e-05,0.0,0 STARLINK-4508,1 53559U 22101AJ  24082.87153004 -.00002838  00000-0 -16030-3 0  9993,2 53559  53.2154  42.0377 0001069  97.2101 262.9013 15.08833961 88090,6917.899,95.438,540.503,539.024,0.0
53559.0,STARLINK-4508,PAYLOAD,2024-03-23 06:27:18,15.08848832,0.0001317,53.2161,40.2534,112.2836,247.8296,0.00024894,3.677e-05,0.0,0 STARLINK-4508,1 53559U 22101AJ  24083.26896668  .00003677  00000-0  24894-3 0  9994,2 53559  53.2161  40.2534 0001317 112.2836 247.8296 15.08848832 88157,6917.853,95.437,540.629,538.807,0.0
53559.0,STARLINK-4508,PAYLOAD,2024-03-23 20:45:47,15.08837778,0.0001491,53.2171,37.5748,137.5823,222.5284,8.4551e-05,1.058e-05,0.0,0 STARLINK-4508,1 53559U 22101AJ  24083.86513087  .00001058  00000-0  84551-4 0  9999,2 53559  53.2171  37.5748 0001491 137.5823 222.5284 15.08837778 88247,6917.887,95.438,540.784,538.721,0.0
53559.0,STARLINK-4508,PAYLOAD,2024-03-24 06:18:05,15.08867826,0.0001688,53.2175,35.7928,130.2524,229.8616,0.0011087,0.00017414,0.0,0 STARLINK-4508,1 53559U 22101AJ  24084.26256394  .00017414  00000-0  11087-2 0  9994,2 53559  53.2175  35.7928 0001688 130.2524 229.8616 15.08867826 88300,6917.795,95.436,540.828,538.493,0.0
53559.0,STARLINK-4508,PAYLOAD,2024-03-25 02:58:07,15.08847901,0.0001483,53.2182,31.9265,91.5991,268.5171,0.00093703,0.00014659,0.0,0 STARLINK-4508,1 53559U 22101AJ  24085.12370094  .00014659  00000-0  93703-3 0  9998,2 53559  53.2182  31.9265 0001483  91.5991 268.5171 15.08847901 88432,6917.856,95.437,540.747,538.695,0.0
53559.0,STARLINK-4508,PAYLOAD,2024-03-26 02:48:55,15.08811485,0.0001336,53.2184,27.466,113.9641,246.1491,0.00038836,5.893e-05,0.0,0 STARLINK-4508,1 53559U 22101AJ  24086.11731475  .00005893  00000-0  38836-3 0  9998,2 53559  53.2184  27.4660 0001336 113.9641 246.1491 15.08811485 88582,6917.968,95.439,540.757,538.908,0.0
53559.0,STARLINK-4508,PAYLOAD,2024-03-26 05:59:42,15.08813016,0.0001138,53.2185,26.873,102.6884,257.4235,0.00059152,9.132e-05,0.0,0 STARLINK-4508,1 53559U 22101AJ  24086.24980000  .00009132  00000-0  59152-3 0  9996,2 53559  53.2185  26.8730 0001138 102.6884 257.4235 15.08813016 88604,6917.963,95.439,540.615,539.041,0.0
